OBJECT_NAME,OBJECT_ID,EPOCH,MEAN_MOTION,ECCENTRICITY,INCLINATION,RA_OF_ASC_NODE,ARG_OF_PERICENTER,MEAN_ANOMALY,EPHEMERIS_TYPE,CLASSIFICATION_TYPE,NORAD_CAT_ID,ELEMENT_SET_NO,REV_AT_EPOCH,BSTAR,MEAN_MOTION_DOT,MEAN_MOTION_DDOT
TIANMU-1 21,2023-208C,2026-07-02T18:15:03.730176,15.35355461,.0005769,97.4525,303.5427,254.8896,105.1709,0,U,58662,999,13995,.30576E-3,.10425E-3,0
TIANMU-1 22,2023-208D,2026-07-02T18:10:25.429728,15.31275855,.0002178,97.4520,300.0621,287.0394,73.0608,0,U,58663,999,13971,.26855E-3,.8035E-4,0
TIANMU-1 15,2024-004A,2026-07-01T20:14:36.994272,15.26798099,.00056891,97.4664,9.0340,288.6642,71.3979,0,U,58700,999,13801,.32265143E-3,.8429E-4,0
TIANMU-1 16,2024-004B,2026-07-02T18:01:54.746112,15.26906876,.0004488,97.4613,9.1654,305.4769,54.6050,0,U,58701,999,13815,.23072E-3,.6023E-4,0
TIANMU-1 17,2024-004C,2026-07-02T17:40:59.082816,15.26905161,.0004093,97.4641,9.6415,313.5589,46.5310,0,U,58702,999,13814,.24007E-3,.627E-4,0
TIANMU-1 18,2024-004D,2026-07-02T18:39:56.418048,15.26824147,.000341,97.4658,9.9438,287.6612,72.4254,0,U,58703,999,13815,.2295E-3,.5976E-4,0
INSAT-3DS,2024-033A,2026-07-02T09:14:20.850720,1.00269425,.0001431,0.0716,96.8706,355.3676,48.8097,0,U,58990,999,4722,0,-.144E-5,0
METEOR-M2 4,2024-039A,2026-07-02T19:11:04.415424,14.22431103,.0008036,98.7025,142.9016,119.7013,240.4966,0,U,59051,999,12148,.27558E-4,.18E-6,0
GOES 19,2024-119A,2026-07-02T13:37:28.098912,1.00271173,.0000538,0.0126,77.9489,80.1000,251.7332,0,U,60133,999,711,0,-.238E-5,0
MTG-S1,2025-143A,2026-07-02T17:24:08.004096,1.00272109,.0002957,0.5916,342.2144,262.9947,296.1264,0,U,64723,999,357,0,.3E-7,0
METOP-SGA1,2025-172A,2026-07-02T15:26:27.688128,14.19817616,.000779,98.6636,243.0440,9.5325,350.5998,0,U,65159,999,4598,.51184E-4,.65E-6,0
FENGYUN 3H,2025-219A,2026-07-02T19:48:41.128992,14.19923114,.0001387,98.6770,124.2907,65.8877,294.2444,0,U,65815,999,3960,.49611E-4,.62E-6,0
